APRIZESAT 2             
1 28366U 04025A   20111.69992026 -.00000008  00000-0  11324-4 0  9998
2 28366  98.2721   5.0415 0107609 179.7957 180.3293 14.36700575828708
SAUDICOMSAT 1           
1 28369U 04025D   20112.81321488  .00000042  00000-0  21331-4 0  9990
2 28369  98.3335  63.9397 0034790  67.5365 292.9509 14.52545029837701
SAUDICOMSAT 2           
1 28370U 04025E   20112.44492922  .00000018  00000-0  17454-4 0  9997
2 28370  98.4274  60.3930 0056861 228.1859 131.4469 14.47477192834793
APRIZESAT 1             
1 28372U 04025G   20111.86615103  .00000012  00000-0  14935-4 0  9997
2 28372  98.3869  61.0457 0046873 154.0289 206.3271 14.49622593836044
NANOSAT-1               
1 28493U 04049B   20112.78194649  .00000074  00000-0  19305-4 0  9990
2 28493  98.1174 202.4708 0003202 292.3127  67.7741 14.73568253824015
SAUDICOMSAT 7           
1 31119U 07012C   20112.77323732  .00000046  00000-0  18459-4 0  9996
2 31119  98.0918  59.8420 0060947  36.8434 323.6931 14.61779298693823
SAUDICOMSAT 6           
1 31121U 07012E   20112.77913446  .00000037  00000-0  17712-4 0  9997
2 31121  98.1451  54.5977 0077694 121.3037 239.5799 14.58578660692332
SAUDICOMSAT 5           
1 31124U 07012H   20112.11600252  .00000048  00000-0  18413-4 0  9997
2 31124  98.0564  61.8467 0051564 354.9465   5.1210 14.63481565694498
SAUDICOMSAT 3           
1 31125U 07012J   20112.85614560  .00000066  00000-0  21213-4 0  9998
2 31125  98.0185  65.3429 0042215 308.3462  51.3951 14.65238741695380
SAUDICOMSAT 4           
1 31127U 07012L   20111.97771358  .00000045  00000-0  18669-4 0  9999
2 31127  98.1190  56.8736 0069389  79.1486 281.7514 14.60293005693005
APRIZESAT 4             
1 35684U 09041D   20111.40586948  .00000046  00000-0  13892-4 0  9996
2 35684  98.2700  88.5094 0047198   1.0088 359.1209 14.79266305578602
APRIZESAT 3             
1 35686U 09041F   20112.68701033  .00000077  00000-0  15029-4 0  9991
2 35686  98.1888 167.8714 0071802 232.6327 126.8335 14.87378161581692
AISSAT 1                
1 36797U 10035C   20112.17805249  .00000180  00000-0  27057-4 0  9997
2 36797  98.1636 259.4514 0010601 203.7673 156.3053 14.86293777529488
S-NET D                 
1 43186U 18014G   20112.22419446  .00000702  00000-0  66304-4 0  9996
2 43186  97.6976  20.9825 0012460  61.0598 299.1871 14.96784030121133
S-NET B                 
1 43187U 18014H   20111.68920150  .00000653  00000-0  62068-4 0  9993
2 43187  97.6973  20.4361 0012448  62.5278 297.7208 14.96783127121053
S-NET A                 
1 43188U 18014J   20112.75868571  .00000750  00000-0  70499-4 0  9996
2 43188  97.6977  21.5161 0012452  59.4835 300.7614 14.96784511121219
S-NET C                 
1 43189U 18014K   20112.82593595  .00000737  00000-0  69400-4 0  9991
2 43189  97.6974  21.5504 0012450  59.2150 301.0295 14.96784077119778
